[{"OBJECT_NAME":"STARLINK-31198","OBJECT_ID":"2024-019Q","EPOCH":"2026-03-09T11:42:00.902880","MEAN_MOTION":15.27578083,"ECCENTRICITY":0.00011995,"INCLINATION":43.0012,"RA_OF_ASC_NODE":249.8639,"ARG_OF_PERICENTER":269.7146,"MEAN_ANOMALY":90.3568,"EPHEMERIS_TYPE":0,"CLASSIFICATION_TYPE":"U","NORAD_CAT_ID":58867,"ELEMENT_SET_NO":999,"REV_AT_EPOCH":11903,"BSTAR":1.2875094e-5,"MEAN_MOTION_DOT":9.2e-7,"MEAN_MOTION_DDOT":0},{"OBJECT_NAME":"STARLINK-36554","OBJECT_ID":"2026-012K","EPOCH":"2026-03-08T17:06:15.871680","MEAN_MOTION":15.27591469,"ECCENTRICITY":6.955e-5,"INCLINATION":42.9934,"RA_OF_ASC_NODE":319.8184,"ARG_OF_PERICENTER":339.2059,"MEAN_ANOMALY":20.8765,"EPHEMERIS_TYPE":0,"CLASSIFICATION_TYPE":"U","NORAD_CAT_ID":67502,"ELEMENT_SET_NO":999,"REV_AT_EPOCH":761,"BSTAR":0.0011969118,"MEAN_MOTION_DOT":0.00032833,"MEAN_MOTION_DDOT":0}]
